QIANFAN-41              
1 62242U 24232F   25296.62037100  .00000166  00000+0  23804-3 0  9994
2 62242  89.0033  46.2427 0012906 342.5190  17.5515 13.50980232 92488
QIANFAN-42              
1 62243U 24232G   25296.61607419  .00000867  00000+0  36856-3 0  9999
2 62243  89.0029  43.0698 0013206 243.6300 116.3538 14.24406216 94232
QIANFAN-43              
1 62244U 24232H   25296.61628084  .00000172  00000+0  24837-3 0  9996
2 62244  89.0037  46.3061 0014553 347.4563  12.6224 13.50981227 61098
QIANFAN-44              
1 62245U 24232J   25296.60386608  .00000179  00000+0  25900-3 0  9998
2 62245  89.0036  46.1190 0012708 345.2063  14.8715 13.50982451 92565
QIANFAN-45              
1 62246U 24232K   25296.64509730  .00000176  00000+0  25452-3 0  9995
2 62246  89.0041  46.2595 0013332 344.4124  15.6615 13.50979063 92490
QIANFAN-46              
1 62247U 24232L   25296.59568980  .00000175  00000+0  25314-3 0  9998
2 62247  89.0035  46.3356 0013578 350.3471   9.7417 13.50979589 92445
QIANFAN-47              
1 62248U 24232M   25296.59980920  .00000182  00000+0  26416-3 0  9993
2 62248  89.0032  46.2701 0013970 349.2541  10.8310 13.50981409 92479
QIANFAN-48              
1 62249U 24232N   25296.63692744  .00000189  00000+0  27401-3 0  9995
2 62249  89.0035  46.2663 0016273 350.9843   9.1013 13.50977473 92481
